[{"OBJECT_NAME":"STARLINK-3879","OBJECT_ID":"2022-049Y","EPOCH":"2026-03-09T05:58:47.803296","MEAN_MOTION":15.08840536,"ECCENTRICITY":0.00015349,"INCLINATION":53.2173,"RA_OF_ASC_NODE":61.095,"ARG_OF_PERICENTER":87.6125,"MEAN_ANOMALY":272.5042,"EPHEMERIS_TYPE":0,"CLASSIFICATION_TYPE":"U","NORAD_CAT_ID":52473,"ELEMENT_SET_NO":999,"REV_AT_EPOCH":21218,"BSTAR":2.1225021e-5,"MEAN_MOTION_DOT":5.0e-7,"MEAN_MOTION_DDOT":0},{"OBJECT_NAME":"CZ-6A R\/B","OBJECT_ID":"2022-031C","EPOCH":"2026-03-09T19:50:55.360896","MEAN_MOTION":15.07476837,"ECCENTRICITY":0.00174842,"INCLINATION":97.8104,"RA_OF_ASC_NODE":273.2347,"ARG_OF_PERICENTER":181.6412,"MEAN_ANOMALY":178.4761,"EPHEMERIS_TYPE":0,"CLASSIFICATION_TYPE":"U","NORAD_CAT_ID":52152,"ELEMENT_SET_NO":999,"REV_AT_EPOCH":21633,"BSTAR":0.00020233161,"MEAN_MOTION_DOT":3.012e-5,"MEAN_MOTION_DDOT":0}]
